NORAD_CAT_ID,OBJECT_NAME,OBJECT_TYPE,EPOCH,MEAN_MOTION,ECCENTRICITY,INCLINATION,RA_OF_ASC_NODE,ARG_OF_PERICENTER,MEAN_ANOMALY,BSTAR,MEAN_MOTION_DOT,MEAN_MOTION_DDOT,TLE_LINE0,TLE_LINE1,TLE_LINE2,SEMIMAJOR_AXIS,PERIOD,APOGEE,PERIGEE,DECAYED
53641.0,STARLINK-4588,PAYLOAD,2024-05-13 22:44:06,15.08894332,0.0001684,53.2187,328.1277,103.3523,256.7657,0.002336,0.00037141,0.0,0 STARLINK-4588,1 53641U 22104BF  24134.94729852  .00037141  00000-0  23360-2 0  9990,2 53641  53.2187 328.1277 0001684 103.3523 256.7657 15.08894332 94850,6917.714,95.434,540.744,538.414,0.0
53641.0,STARLINK-4588,PAYLOAD,2024-05-14 19:24:05,15.08899292,0.000301,53.2184,324.2624,95.9065,264.227,0.0013454,0.00021225,0.0,0 STARLINK-4588,1 53641U 22104BF  24135.80839866  .00021225  00000-0  13454-2 0  9992,2 53641  53.2184 324.2624 0003010  95.9065 264.2270 15.08899292 94981,6917.699,95.434,541.646,537.482,0.0
53641.0,STARLINK-4588,PAYLOAD,2024-05-15 04:56:22,15.08900744,3.95e-05,53.2198,322.4786,42.636,317.4663,0.00047998,7.372e-05,0.0,0 STARLINK-4588,1 53641U 22104BF  24136.20581750  .00007372  00000-0  47998-3 0  9991,2 53641  53.2198 322.4786 0000395  42.6360 317.4663 15.08900744 95045,6917.695,95.434,539.833,539.286,0.0
53641.0,STARLINK-4588,PAYLOAD,2024-05-15 12:53:17,15.08887812,0.0001578,53.2149,320.989,92.4,267.7173,-0.00064251,-0.00010513,0.0,0 STARLINK-4588,1 53641U 22104BF  24136.53700642 -.00010513  00000-0 -64251-3 0  9994,2 53641  53.2149 320.9890 0001578  92.4000 267.7173 15.08887812 95096,6917.734,95.435,540.691,538.508,0.0
53641.0,STARLINK-4588,PAYLOAD,2024-05-15 19:14:50,15.08874591,0.0002294,53.2176,319.8016,95.123,265.0024,-0.00035961,-6.013e-05,0.0,0 STARLINK-4588,1 53641U 22104BF  24136.80196956 -.00006013  00000-0 -35961-3 0  9997,2 53641  53.2176 319.8016 0002294  95.1230 265.0024 15.08874591 95135,6917.775,95.435,541.227,538.053,0.0
53641.0,STARLINK-4588,PAYLOAD,2024-05-16 04:47:08,15.08861471,0.0002282,53.2182,318.0174,91.5527,268.5726,-0.00037502,-6.256e-05,0.0,0 STARLINK-4588,1 53641U 22104BF  24137.19940909 -.00006256  00000-0 -37502-3 0  9997,2 53641  53.2182 318.0174 0002282  91.5527 268.5726 15.08861471 95190,6917.815,95.436,541.258,538.101,0.0
53641.0,STARLINK-4588,PAYLOAD,2024-05-16 22:16:22,15.08856821,0.0001907,53.2182,314.7446,76.8226,283.2979,-3.0636e-05,-7.76e-06,0.0,0 STARLINK-4588,1 53641U 22104BF  24137.92804374 -.00000776  00000-0 -30636-4 0  9996,2 53641  53.2182 314.7446 0001907  76.8226 283.2979 15.08856821 96323,6917.829,95.436,541.013,538.375,0.0
53641.0,STARLINK-4588,PAYLOAD,2024-05-17 04:37:56,15.08831157,0.0002093,53.2175,313.5569,78.7558,281.3669,-0.00045213,-7.475e-05,0.0,0 STARLINK-4588,1 53641U 22104BF  24138.19301343 -.00007475  00000-0 -45213-3 0  9993,2 53641  53.2175 313.5569 0002093  78.7558 281.3669 15.08831157 95345,6917.907,95.438,541.22,538.325,0.0
53641.0,STARLINK-4588,PAYLOAD,2024-05-17 20:31:48,15.08821269,0.0002814,53.2176,310.5838,86.3362,273.7952,-0.00023711,-4.059e-05,0.0,0 STARLINK-4588,1 53641U 22104BF  24138.85542614 -.00004059  00000-0 -23711-3 0  9998,2 53641  53.2176 310.5838 0002814  86.3362 273.7952 15.08821269 96468,6917.938,95.439,541.749,537.856,0.0
53641.0,STARLINK-4588,PAYLOAD,2024-05-18 04:28:44,15.08835093,0.0003058,53.2189,309.0968,81.1037,279.0301,0.00013798,1.908e-05,0.0,0 STARLINK-4588,1 53641U 22104BF  24139.18662583  .00001908  00000-0  13798-3 0  9995,2 53641  53.2189 309.0968 0003058  81.1037 279.0301 15.08835093 95491,6917.895,95.438,541.876,537.645,0.0
53641.0,STARLINK-4588,PAYLOAD,2024-05-18 20:22:35,15.08864763,0.0002225,53.2176,306.1235,86.9725,273.1521,0.0010445,0.00016386,0.0,0 STARLINK-4588,1 53641U 22104BF  24139.84901846  .00016386  00000-0  10445-2 0  9997,2 53641  53.2176 306.1235 0002225  86.9725 273.1521 15.08864763 95590,6917.805,95.436,541.209,538.13,0.0
53641.0,STARLINK-4588,PAYLOAD,2024-05-19 04:19:31,15.08838642,0.0002775,53.2174,304.6372,82.4607,277.67,0.00016042,2.266e-05,0.0,0 STARLINK-4588,1 53641U 22104BF  24140.18023052  .00002266  00000-0  16042-3 0  9992,2 53641  53.2174 304.6372 0002775  82.4607 277.6700 15.08838642 95644,6917.885,95.438,541.669,537.83,0.0
53641.0,STARLINK-4588,PAYLOAD,2024-05-19 10:41:04,15.08844225,0.0003145,53.2134,303.4494,79.8718,280.2628,-0.00035721,-5.97e-05,0.0,0 STARLINK-4588,1 53641U 22104BF  24140.44518752 -.00005970  00000-0 -35721-3 0  9999,2 53641  53.2134 303.4494 0003145  79.8718 280.2628 15.08844225 96708,6917.867,95.437,541.908,537.557,0.0
53641.0,STARLINK-4588,PAYLOAD,2024-05-19 17:02:36,15.08829932,0.0001754,53.2151,302.2585,73.8198,286.2987,-2.1621e-05,-6.32e-06,0.0,0 STARLINK-4588,1 53641U 22104BF  24140.71014789 -.00000632  00000-0 -21621-4 0  9995,2 53641  53.2151 302.2585 0001754  73.8198 286.2987 15.08829932 95728,6917.911,95.438,540.99,538.563,0.0
53641.0,STARLINK-4588,PAYLOAD,2024-05-20 10:31:51,15.08845418,0.0001792,53.2151,298.987,70.3876,289.7309,0.00052495,8.078e-05,0.0,0 STARLINK-4588,1 53641U 22104BF  24141.43878847  .00008078  00000-0  52495-3 0  9990,2 53641  53.2151 298.9870 0001792  70.3876 289.7309 15.08845418 95838,6917.864,95.437,540.969,538.489,0.0
53641.0,STARLINK-4588,PAYLOAD,2024-05-21 10:22:38,15.08851006,0.0001976,53.2161,294.528,61.9377,298.1815,0.00046336,7.096e-05,0.0,0 STARLINK-4588,1 53641U 22104BF  24142.43238674  .00007096  00000-0  46336-3 0  9995,2 53641  53.2161 294.5280 0001976  61.9377 298.1815 15.08851006 95984,6917.847,95.437,541.079,538.345,0.0
53641.0,STARLINK-4588,PAYLOAD,2024-05-21 13:33:24,15.08847671,0.0001384,53.2153,293.9315,63.5952,296.5182,0.00035882,5.428e-05,0.0,0 STARLINK-4588,1 53641U 22104BF  24142.56486576  .00005428  00000-0  35882-3 0  9996,2 53641  53.2153 293.9315 0001384  63.5952 296.5182 15.08847671 97026,6917.857,95.437,540.679,538.765,0.0
53641.0,STARLINK-4588,PAYLOAD,2024-05-21 16:44:10,15.08849927,0.0001375,53.2173,293.3366,82.321,277.7938,0.00049145,7.544e-05,0.0,0 STARLINK-4588,1 53641U 22104BF  24142.69734451  .00007544  00000-0  49145-3 0  9996,2 53641  53.2173 293.3366 0001375  82.3210 277.7938 15.08849927 97042,6917.85,95.437,540.666,538.764,0.0
53641.0,STARLINK-4588,PAYLOAD,2024-05-22 10:13:25,15.08827116,0.0001407,53.2173,290.0652,87.2296,272.8857,0.00042844,6.535e-05,0.0,0 STARLINK-4588,1 53641U 22104BF  24143.42599395  .00006535  00000-0  42844-3 0  9992,2 53641  53.2173 290.0652 0001407  87.2296 272.8857 15.08827116 96139,6917.92,95.438,540.758,538.811,0.0
53641.0,STARLINK-4588,PAYLOAD,2024-05-23 13:14:59,15.08853735,0.0001326,53.2178,285.011,60.7706,299.3418,0.00079172,0.00012339,0.0,0 STARLINK-4588,1 53641U 22104BF  24144.55207515  .00012339  00000-0  79172-3 0  9990,2 53641  53.2178 285.0110 0001326  60.7706 299.3418 15.08853735 96301,6917.838,95.437,540.621,538.786,0.0
53641.0,STARLINK-4588,PAYLOAD,2024-05-23 14:50:22,15.0886121,0.0001412,53.2175,284.7111,68.9137,291.2006,0.0010459,0.00016406,0.0,0 STARLINK-4588,1 53641U 22104BF  24144.61831338  .00016406  00000-0  10459-2 0  9994,2 53641  53.2175 284.7111 0001412  68.9137 291.2006 15.08861210 97334,6917.816,95.436,540.657,538.704,0.0
53641.0,STARLINK-4588,PAYLOAD,2024-05-24 13:05:45,15.0887177,0.0001139,53.2164,280.5488,94.0537,266.0585,0.0007817,0.00012185,0.0,0 STARLINK-4588,1 53641U 22104BF  24145.54566137  .00012185  00000-0  78170-3 0  9994,2 53641  53.2164 280.5488 0001139  94.0537 266.0585 15.08871770 96459,6917.783,95.436,540.436,538.86,0.0
53641.0,STARLINK-4588,PAYLOAD,2024-05-24 14:41:08,15.08866074,0.0001114,53.217,280.2553,86.5771,273.5349,0.00056851,8.778e-05,0.0,0 STARLINK-4588,1 53641U 22104BF  24145.61190047  .00008778  00000-0  56851-3 0  9990,2 53641  53.2170 280.2553 0001114  86.5771 273.5349 15.08866074 97481,6917.801,95.436,540.436,538.895,0.0
53641.0,STARLINK-4588,PAYLOAD,2024-05-25 12:56:32,15.08842201,0.0001295,53.2166,276.0917,111.6937,248.4193,0.00062333,9.647e-05,0.0,0 STARLINK-4588,1 53641U 22104BF  24146.53926611  .00009647  00000-0  62333-3 0  9994,2 53641  53.2166 276.0917 0001295 111.6937 248.4193 15.08842201 96604,6917.874,95.437,540.635,538.843,0.0
53641.0,STARLINK-4588,PAYLOAD,2024-05-25 14:31:55,15.08830786,0.0001032,53.2172,275.796,84.4628,275.6482,0.00025592,3.787e-05,0.0,0 STARLINK-4588,1 53641U 22104BF  24146.60550742  .00003787  00000-0  25592-3 0  9995,2 53641  53.2172 275.7960 0001032  84.4628 275.6482 15.08830786 97630,6917.909,95.438,540.487,539.06,0.0
53641.0,STARLINK-4588,PAYLOAD,2024-05-25 17:42:42,15.08834434,8.3e-05,53.2156,275.1969,119.3538,240.7537,0.00012541,1.708e-05,0.0,0 STARLINK-4588,1 53641U 22104BF  24146.73798666  .00001708  00000-0  12541-3 0  9999,2 53641  53.2156 275.1969 0000830 119.3538 240.7537 15.08834434 96635,6917.897,95.438,540.337,539.188,0.0
53641.0,STARLINK-4588,PAYLOAD,2024-05-26 01:39:38,15.08818868,8.51e-05,53.2162,273.7129,102.5279,257.5808,-0.00030856,-5.192e-05,0.0,0 STARLINK-4588,1 53641U 22104BF  24147.06919432 -.00005192  00000-0 -30856-3 0  9994,2 53641  53.2162 273.7129 0000851 102.5279 257.5808 15.08818868 96688,6917.945,95.439,540.399,539.221,0.0
53641.0,STARLINK-4588,PAYLOAD,2024-05-26 12:47:20,15.08838316,0.0001169,53.216,271.6328,68.8471,291.2646,0.00046277,7.084e-05,0.0,0 STARLINK-4588,1 53641U 22104BF  24147.53287140  .00007084  00000-0  46277-3 0  9994,2 53641  53.2160 271.6328 0001169  68.8471 291.2646 15.08838316 96758,6917.886,95.438,540.559,538.942,0.0
53641.0,STARLINK-4588,PAYLOAD,2024-05-26 14:22:43,15.08846799,9.73e-05,53.2164,271.3332,94.5056,265.6047,0.00057436,8.867e-05,0.0,0 STARLINK-4588,1 53641U 22104BF  24147.59911026  .00008867  00000-0  57436-3 0  9996,2 53641  53.2164 271.3332 0000973  94.5056 265.6047 15.08846799 97789,6917.86,95.437,540.398,539.051,0.0
53641.0,STARLINK-4588,PAYLOAD,2024-05-26 15:58:06,15.08845527,0.0001015,53.2167,271.0355,93.0371,267.0737,0.00079282,0.00012354,0.0,0 STARLINK-4588,1 53641U 22104BF  24147.66534886  .00012354  00000-0  79282-3 0  9998,2 53641  53.2167 271.0355 0001015  93.0371 267.0737 15.08845527 97797,6917.863,95.437,540.431,539.026,0.0
